start=new Date('2022-12-24T00:00:00.000Z').valueOf();
sats=[{"CENTER_NAME":"EARTH","TIME_SYSTEM":"UTC","PERIOD":"95.438","BSTAR":"0.00013020000000","REV_AT_EPOCH":"2431","MEAN_ELEMENT_THEORY":"SGP4","MEAN_MOTION_DDOT":"0.0000000000000","ARG_OF_PERICENTER":"29.0541","RA_OF_ASC_NODE":"34.9380","EPHEMERIS_TYPE":"0","NORAD_CAT_ID":"53142","REF_FRAME":"TEME","DECAY_DATE":null,"INCLINATION":"53.2180","APOAPSIS":"541.697","ECCENTRICITY":"0.00027920","MEAN_MOTION":"15.08833267","ELEMENT_SET_NO":"999","GP_ID":"221308282","OBJECT_NAME":"STARLINK-4101","LAUNCH_DATE":"2022-07-17","MEAN_ANOMALY":"331.0606","OBJECT_ID":"2022-083L","SITE":"AFETR","SEMIMAJOR_AXIS":"6917.901","MEAN_MOTION_DOT":"0.00001784","TLE_LINE2":"2 53142  53.2180  34.9380 0002792  29.0541 331.0606 15.08833267 24316","CLASSIFICATION_TYPE":"U","FILE":"3720518","OBJECT_TYPE":"PAYLOAD","PERIAPSIS":"537.834","COUNTRY_CODE":"US","EPOCH":"2022-12-23T19:16:32.769984","RCS_SIZE":"LARGE","TLE_LINE1":"1 53142U 22083L   22357.80315706  .00001784  00000-0  13020-3 0  9998"},{"REF_FRAME":"TEME","NORAD_CAT_ID":"53143","EPHEMERIS_TYPE":"0","INCLINATION":"53.2162","DECAY_DATE":null,"ELEMENT_SET_NO":"999","MEAN_MOTION":"15.08863243","ECCENTRICITY":"0.00017770","APOAPSIS":"540.904","GP_ID":"221278116","PERIOD":"95.436","TIME_SYSTEM":"UTC","CENTER_NAME":"EARTH","BSTAR":"0.00056622000000","MEAN_MOTION_DDOT":"0.0000000000000","MEAN_ELEMENT_THEORY":"SGP4","REV_AT_EPOCH":"2424","RA_OF_ASC_NODE":"36.7789","ARG_OF_PERICENTER":"63.2462","TLE_LINE2":"2 53143  53.2162  36.7789 0001777  63.2462 296.8712 15.08863243 24249","MEAN_MOTION_DOT":"0.00008741","CLASSIFICATION_TYPE":"U","OBJECT_TYPE":"PAYLOAD","PERIAPSIS":"538.445","FILE":"3720302","TLE_LINE1":"1 53143U 22083M   22357.39099066  .00008741  00000-0  56622-3 0  9996","EPOCH":"2022-12-23T09:23:01.593024","RCS_SIZE":"LARGE","COUNTRY_CODE":"US","LAUNCH_DATE":"2022-07-17","OBJECT_NAME":"STARLINK-4102","MEAN_ANOMALY":"296.8712","OBJECT_ID":"2022-083M","SITE":"AFETR","SEMIMAJOR_AXIS":"6917.809"},{"MEAN_ELEMENT_THEORY":"SGP4","MEAN_MOTION_DDOT":"0.0000000000000","REV_AT_EPOCH":"2426","RA_OF_ASC_NODE":"36.1428","ARG_OF_PERICENTER":"28.7272","PERIOD":"95.438","TIME_SYSTEM":"UTC","CENTER_NAME":"EARTH","BSTAR":"0.00037673000000","MEAN_MOTION":"15.08840850","ELEMENT_SET_NO":"999","APOAPSIS":"541.777","ECCENTRICITY":"0.00029410","GP_ID":"221279142","EPHEMERIS_TYPE":"0","NORAD_CAT_ID":"53144","REF_FRAME":"TEME","INCLINATION":"53.2156","DECAY_DATE":null,"OBJECT_ID":"2022-083N","SEMIMAJOR_AXIS":"6917.878","SITE":"AFETR","OBJECT_NAME":"STARLINK-4100","LAUNCH_DATE":"2022-07-17","MEAN_ANOMALY":"331.3882","OBJECT_TYPE":"PAYLOAD","PERIAPSIS":"537.708","FILE":"3720302","TLE_LINE1":"1 53144U 22083N   22357.53451607  .00005713  00000-0  37673-3 0  9997","COUNTRY_CODE":"US","EPOCH":"2022-12-23T12:49:42.188448","RCS_SIZE":"LARGE","TLE_LINE2":"2 53144  53.2156  36.1428 0002941  28.7272 331.3882 15.08840850 24260","MEAN_MOTION_DOT":"0.00005713","CLASSIFICATION_TYPE":"U"},{"FILE":"3720518","OBJECT_TYPE":"PAYLOAD","PERIAPSIS":"538.013","EPOCH":"2022-12-23T13:58:35.300928","RCS_SIZE":"LARGE","COUNTRY_CODE":"US","TLE_LINE1":"1 53145U 22083P   22357.58235302  .00002474  00000-0  17357-3 0  9993","MEAN_MOTION_DOT":"0.00002474","TLE_LINE2":"2 53145  53.2190  35.9089 0002558  30.7824 329.3318 15.08827808 24279","CLASSIFICATION_TYPE":"U","OBJECT_ID":"2022-083P","SITE":"AFETR","SEMIMAJOR_AXIS":"6917.918","LAUNCH_DATE":"2022-07-17","OBJECT_NAME":"STARLINK-4106","MEAN_ANOMALY":"329.3318","ECCENTRICITY":"0.00025580","APOAPSIS":"541.552","MEAN_MOTION":"15.08827808","ELEMENT_SET_NO":"999","GP_ID":"221309706","REF_FRAME":"TEME","NORAD_CAT_ID":"53145","EPHEMERIS_TYPE":"0","DECAY_DATE":null,"INCLINATION":"53.2190","REV_AT_EPOCH":"2427","MEAN_MOTION_DDOT":"0.0000000000000","MEAN_ELEMENT_THEORY":"SGP4","ARG_OF_PERICENTER":"30.7824","RA_OF_ASC_NODE":"35.9089","CENTER_NAME":"EARTH","TIME_SYSTEM":"UTC","PERIOD":"95.438","BSTAR":"0.00017357000000"},{"MEAN_MOTION_DDOT":"0.0000000000000","MEAN_ELEMENT_THEORY":"SGP4","REV_AT_EPOCH":"2426","RA_OF_ASC_NODE":"36.1530","ARG_OF_PERICENTER":"27.6071","PERIOD":"95.438","CENTER_NAME":"EARTH","TIME_SYSTEM":"UTC","BSTAR":"0.00023981000000","MEAN_MOTION":"15.08830869","ELEMENT_SET_NO":"999","ECCENTRICITY":"0.00025520","APOAPSIS":"541.539","GP_ID":"221278346","REF_FRAME":"TEME","EPHEMERIS_TYPE":"0","NORAD_CAT_ID":"53146","INCLINATION":"53.2184","DECAY_DATE":null,"OBJECT_ID":"2022-083Q","SITE":"AFETR","SEMIMAJOR_AXIS":"6917.908","LAUNCH_DATE":"2022-07-17","OBJECT_NAME":"STARLINK-4099","MEAN_ANOMALY":"332.5056","OBJECT_TYPE":"PAYLOAD","PERIAPSIS":"538.008","FILE":"3720302","TLE_LINE1":"1 53146U 22083Q   22357.53082789  .00003529  00000-0  23981-3 0  9990","RCS_SIZE":"LARGE","EPOCH":"2022-12-23T12:44:23.529696","COUNTRY_CODE":"US","TLE_LINE2":"2 53146  53.2184  36.1530 0002552  27.6071 332.5056 15.08830869 24265","MEAN_MOTION_DOT":"0.00003529","CLASSIFICATION_TYPE":"U"},{"TIME_SYSTEM":"UTC","CENTER_NAME":"EARTH","PERIOD":"95.438","BSTAR":"0.00029122000000","REV_AT_EPOCH":"2492","MEAN_MOTION_DDOT":"0.0000000000000","MEAN_ELEMENT_THEORY":"SGP4","ARG_OF_PERICENTER":"27.2378","RA_OF_ASC_NODE":"35.9236","REF_FRAME":"TEME","EPHEMERIS_TYPE":"0","NORAD_CAT_ID":"53147","DECAY_DATE":null,"INCLINATION":"53.2176","ECCENTRICITY":"0.00026490","APOAPSIS":"541.577","MEAN_MOTION":"15.08840409","ELEMENT_SET_NO":"999","GP_ID":"221308924","LAUNCH_DATE":"2022-07-17","OBJECT_NAME":"STARLINK-4094","MEAN_ANOMALY":"332.8752","OBJECT_ID":"2022-083R","SEMIMAJOR_AXIS":"6917.879","SITE":"AFETR","MEAN_MOTION_DOT":"0.00004350","TLE_LINE2":"2 53147  53.2176  35.9236 0002649  27.2378 332.8752 15.08840409 24920","CLASSIFICATION_TYPE":"U","FILE":"3720518","OBJECT_TYPE":"PAYLOAD","PERIAPSIS":"537.912","EPOCH":"2022-12-23T13:53:17.361024","RCS_SIZE":"LARGE","COUNTRY_CODE":"US","TLE_LINE1":"1 53147U 22083R   22357.57867316  .00004350  00000-0  29122-3 0  9998"},{"INCLINATION":"53.2182","DECAY_DATE":null,"REF_FRAME":"TEME","EPHEMERIS_TYPE":"0","NORAD_CAT_ID":"53148","GP_ID":"221309130","ELEMENT_SET_NO":"999","MEAN_MOTION":"15.08834775","ECCENTRICITY":"0.00022430","APOAPSIS":"541.313","BSTAR":"0.00014235000000","PERIOD":"95.438","CENTER_NAME":"EARTH","TIME_SYSTEM":"UTC","RA_OF_ASC_NODE":"35.8980","ARG_OF_PERICENTER":"29.8331","MEAN_MOTION_DDOT":"0.0000000000000","MEAN_ELEMENT_THEORY":"SGP4","REV_AT_EPOCH":"2427","CLASSIFICATION_TYPE":"U","TLE_LINE2":"2 53148  53.2182  35.8980 0002243  29.8331 330.2789 15.08834775 24279","MEAN_MOTION_DOT":"0.00001978","TLE_LINE1":"1 53148U 22083S   22357.58603446  .00001978  00000-0  14235-3 0  9994","RCS_SIZE":"LARGE","EPOCH":"2022-12-23T14:03:53.377344","COUNTRY_CODE":"US","OBJECT_TYPE":"PAYLOAD","PERIAPSIS":"538.210","FILE":"3720518","MEAN_ANOMALY":"330.2789","LAUNCH_DATE":"2022-07-17","OBJECT_NAME":"STARLINK-4066","SEMIMAJOR_AXIS":"6917.896","SITE":"AFETR","OBJECT_ID":"2022-083S"},{"REV_AT_EPOCH":"2444","MEAN_MOTION_DDOT":"0.0000000000000","MEAN_ELEMENT_THEORY":"SGP4","ARG_OF_PERICENTER":"30.5614","RA_OF_ASC_NODE":"24.9954","TIME_SYSTEM":"UTC","CENTER_NAME":"EARTH","PERIOD":"95.438","BSTAR":"0.00063099000000","ECCENTRICITY":"0.00027080","APOAPSIS":"541.632","MEAN_MOTION":"15.08835828","ELEMENT_SET_NO":"999","GP_ID":"221309315","REF_FRAME":"TEME","EPHEMERIS_TYPE":"0","NORAD_CAT_ID":"53149","DECAY_DATE":null,"INCLINATION":"53.2181","OBJECT_ID":"2022-083T","SEMIMAJOR_AXIS":"6917.893","SITE":"AFETR","LAUNCH_DATE":"2022-07-17","OBJECT_NAME":"STARLINK-4021","MEAN_ANOMALY":"329.5536","FILE":"3720518","OBJECT_TYPE":"PAYLOAD","PERIAPSIS":"537.885","RCS_SIZE":"LARGE","EPOCH":"2022-12-23T18:51:22.532544","COUNTRY_CODE":"US","TLE_LINE1":"1 53149U 22083T   22357.78567746  .00009767  00000-0  63099-3 0  9995","MEAN_MOTION_DOT":"0.00009767","TLE_LINE2":"2 53149  53.2181  24.9954 0002708  30.5614 329.5536 15.08835828 24448","CLASSIFICATION_TYPE":"U"},{"ELEMENT_SET_NO":"999","MEAN_MOTION":"15.08845811","APOAPSIS":"541.624","ECCENTRICITY":"0.00027410","GP_ID":"221277915","NORAD_CAT_ID":"53150","EPHEMERIS_TYPE":"0","REF_FRAME":"TEME","INCLINATION":"53.2161","DECAY_DATE":null,"MEAN_ELEMENT_THEORY":"SGP4","MEAN_MOTION_DDOT":"0.0000000000000","REV_AT_EPOCH":"2437","RA_OF_ASC_NODE":"26.8919","ARG_OF_PERICENTER":"29.8577","PERIOD":"95.437","TIME_SYSTEM":"UTC","CENTER_NAME":"EARTH","BSTAR":"0.00045074000000","PERIAPSIS":"537.831","OBJECT_TYPE":"PAYLOAD","FILE":"3720302","TLE_LINE1":"1 53150U 22083U   22357.36247168  .00006894  00000-0  45074-3 0  9995","COUNTRY_CODE":"US","EPOCH":"2022-12-23T08:41:57.553152","RCS_SIZE":"LARGE","TLE_LINE2":"2 53150  53.2161  26.8919 0002741  29.8577 330.2571 15.08845811 24379","MEAN_MOTION_DOT":"0.00006894","CLASSIFICATION_TYPE":"U","OBJECT_ID":"2022-083U","SEMIMAJOR_AXIS":"6917.863","SITE":"AFETR","OBJECT_NAME":"STARLINK-4038","LAUNCH_DATE":"2022-07-17","MEAN_ANOMALY":"330.2571"},{"ARG_OF_PERICENTER":"30.7015","RA_OF_ASC_NODE":"24.8626","REV_AT_EPOCH":"2444","MEAN_ELEMENT_THEORY":"SGP4","MEAN_MOTION_DDOT":"0.0000000000000","BSTAR":"0.00020242000000","CENTER_NAME":"EARTH","TIME_SYSTEM":"UTC","PERIOD":"95.438","GP_ID":"221308490","APOAPSIS":"541.592","ECCENTRICITY":"0.00026410","MEAN_MOTION":"15.08833658","ELEMENT_SET_NO":"999","DECAY_DATE":null,"INCLINATION":"53.2191","EPHEMERIS_TYPE":"0","NORAD_CAT_ID":"53151","REF_FRAME":"TEME","SITE":"AFETR","SEMIMAJOR_AXIS":"6917.900","OBJECT_ID":"2022-083V","MEAN_ANOMALY":"329.4131","OBJECT_NAME":"STARLINK-4040","LAUNCH_DATE":"2022-07-17","COUNTRY_CODE":"US","EPOCH":"2022-12-23T19:33:45.844416","RCS_SIZE":"LARGE","TLE_LINE1":"1 53151U 22083V   22357.81511394  .00002934  00000-0  20242-3 0  9992","FILE":"3720518","OBJECT_TYPE":"PAYLOAD","PERIAPSIS":"537.938","CLASSIFICATION_TYPE":"U","MEAN_MOTION_DOT":"0.00002934","TLE_LINE2":"2 53151  53.2191  24.8626 0002641  30.7015 329.4131 15.08833658 24449"}];
